{"type": "FeatureCollection", "features": [ {"type": "Feature", "properties": {"norad_id": 34571, "name": "COSMOS 2251 DEB", "group": "cosmos-2251-debris", "lat": 9.204220823530118, "lon": 171.0399206012408, "alt_km": 775.9837078051023, "timestamp": "2025-12-20T05:41:50.425950+00:00", "meta": {"OBJECT_NAME": "COSMOS 2251 DEB", "OBJECT_ID": "1993-036VH", "EPOCH": "2025-12-18T22:10:04.528128", "MEAN_MOTION": 14.48905766, "ECCENTRICITY": 0.0065409, "INCLINATION": 74.0384, "RA_OF_ASC_NODE": 170.8432, "ARG_OF_PERICENTER": 204.4185, "MEAN_ANOMALY": 155.3874, "EPHEMERIS_TYPE": 0, "CLASSIFICATION_TYPE": "U", "NORAD_CAT_ID": 34571, "ELEMENT_SET_NO": 999, "REV_AT_EPOCH": 87383, "BSTAR": 0.0018317465, "MEAN_MOTION_DOT": 7.102e-05, "MEAN_MOTION_DDOT": 0}, "tle": {"line1": "1 34571U 93036VH  25352.92366352  .00007102  00000+0  18317-2 0  9995", "line2": "2 34571  74.0384 170.8432 0065409 204.4185 155.3874 14.48905766873833"}}, "geometry": {"type": "Point", "coordinates": [171.0399206012408, 9.204220823530118]}}, {"type": "Feature", "properties": {"norad_id": 34572, "name": "COSMOS 2251 DEB", "group": "cosmos-2251-debris", "lat": -73.4371137933559, "lon": -4.002555189715715, "alt_km": 733.1641573721508, "timestamp": "2025-12-20T05:41:50.425960+00:00", "meta": {"OBJECT_NAME": "COSMOS 2251 DEB", "OBJECT_ID": "1993-036VJ", "EPOCH": "2025-12-19T08:52:33.083040", "MEAN_MOTION": 14.50137544, "ECCENTRICITY": 0.0061983, "INCLINATION": 74.0111, "RA_OF_ASC_NODE": 103.0332, "ARG_OF_PERICENTER": 175.7717, "MEAN_ANOMALY": 241.8877, "EPHEMERIS_TYPE": 0, "CLASSIFICATION_TYPE": "U", "NORAD_CAT_ID": 34572, "ELEMENT_SET_NO": 999, "REV_AT_EPOCH": 87474, "BSTAR": 0.0016719, "MEAN_MOTION_DOT": 6.633e-05, "MEAN_MOTION_DDOT": 0}, "tle": {"line1": "1 34572U 93036VJ  25353.36982735  .00006633  00000+0  16719-2 0  9996", "line2": "2 34572  74.0111 103.0332 0061983 175.7717 241.8877 14.50137544874742"}}, "geometry": {"type": "Point", "coordinates": [-4.002555189715715, -73.4371137933559]}}, {"type": "Feature", "properties": {"norad_id": 34574, "name": "COSMOS 2251 DEB", "group": "cosmos-2251-debris", "lat": -13.725664676895422, "lon": 24.609436014673406, "alt_km": 640.3890856824846, "timestamp": "2025-12-20T05:41:50.425970+00:00", "meta": {"OBJECT_NAME": "COSMOS 2251 DEB", "OBJECT_ID": "1993-036VL", "EPOCH": "2025-12-19T03:53:34.047168", "MEAN_MOTION": 14.70670537, "ECCENTRICITY": 0.00670673, "INCLINATION": 74.0688, "RA_OF_ASC_NODE": 30.6919, "ARG_OF_PERICENTER": 49.6994, "MEAN_ANOMALY": 6.6582, "EPHEMERIS_TYPE": 0, "CLASSIFICATION_TYPE": "U", "NORAD_CAT_ID": 34574, "ELEMENT_SET_NO": 999, "REV_AT_EPOCH": 88873, "BSTAR": 0.00065499234, "MEAN_MOTION_DOT": 4.099e-05, "MEAN_MOTION_DDOT": 0}, "tle": {"line1": "1 34574U 93036VL  25353.16219962  .00004099  00000+0  65499-3 0  9995", "line2": "2 34574  74.0688  30.6919 0067067  49.6994   6.6582 14.70670537888734"}}, "geometry": {"type": "Point", "coordinates": [24.609436014673406, -13.725664676895422]}}, {"type": "Feature", "properties": {"norad_id": 34576, "name": "COSMOS 2251 DEB", "group": "cosmos-2251-debris", "lat": -73.6383029433468, "lon": 21.185839684370144, "alt_km": 708.9868745566109, "timestamp": "2025-12-20T05:41:50.425981+00:00", "meta": {"OBJECT_NAME": "COSMOS 2251 DEB", "OBJECT_ID": "1993-036VN", "EPOCH": "2025-12-19T15:21:26.249760", "MEAN_MOTION": 14.55469677, "ECCENTRICITY": 0.0008223, "INCLINATION": 74.0343, "RA_OF_ASC_NODE": 125.1243, "ARG_OF_PERICENTER": 262.3221, "MEAN_ANOMALY": 114.6335, "EPHEMERIS_TYPE": 0, "CLASSIFICATION_TYPE": "U", "NORAD_CAT_ID": 34576, "ELEMENT_SET_NO": 999, "REV_AT_EPOCH": 88567, "BSTAR": 0.00058339, "MEAN_MOTION_DOT": 2.511e-05, "MEAN_MOTION_DDOT": 0}, "tle": {"line1": "1 34576U 93036VN  25353.63988715  .00002511  00000+0  58339-3 0  9990", "line2": "2 34576  74.0343 125.1243 0008223 262.3221 114.6335 14.55469677885670"}}, "geometry": {"type": "Point", "coordinates": [21.185839684370144, -73.6383029433468]}}, {"type": "Feature", "properties": {"norad_id": 34579, "name": "COSMOS 2251 DEB", "group": "cosmos-2251-debris", "lat": -29.75958272819092, "lon": 39.34498923211279, "alt_km": 738.6302332254245, "timestamp": "2025-12-20T05:41:50.425991+00:00", "meta": {"OBJECT_NAME": "COSMOS 2251 DEB", "OBJECT_ID": "1993-036VR", "EPOCH": "2025-12-19T07:40:08.255136", "MEAN_MOTION": 14.45325476, "ECCENTRICITY": 0.0027538, "INCLINATION": 74.0518, "RA_OF_ASC_NODE": 211.6432, "ARG_OF_PERICENTER": 279.3076, "MEAN_ANOMALY": 198.168, "EPHEMERIS_TYPE": 0, "CLASSIFICATION_TYPE": "U", "NORAD_CAT_ID": 34579, "ELEMENT_SET_NO": 999, "REV_AT_EPOCH": 88269, "BSTAR": 0.00027802, "MEAN_MOTION_DOT": 9.54e-06, "MEAN_MOTION_DDOT": 0}, "tle": {"line1": "1 34579U 93036VR  25353.31953999  .00000954  00000+0  27802-3 0  9994", "line2": "2 34579  74.0518 211.6432 0027538 279.3076 198.1680 14.45325476882690"}}, "geometry": {"type": "Point", "coordinates": [39.34498923211279, -29.75958272819092]}}, {"type": "Feature", "properties": {"norad_id": 34582, "name": "COSMOS 2251 DEB", "group": "cosmos-2251-debris", "lat": 72.6558110699639, "lon": 11.867599155771943, "alt_km": 739.8473085101114, "timestamp": "2025-12-20T05:41:50.426001+00:00", "meta": {"OBJECT_NAME": "COSMOS 2251 DEB", "OBJECT_ID": "1993-036VU", "EPOCH": "2025-12-19T17:36:33.455520", "MEAN_MOTION": 14.43359214, "ECCENTRICITY": 0.00482467, "INCLINATION": 74.0201, "RA_OF_ASC_NODE": 259.3701, "ARG_OF_PERICENTER": 7.9691, "MEAN_ANOMALY": 352.222, "EPHEMERIS_TYPE": 0, "CLASSIFICATION_TYPE": "U", "NORAD_CAT_ID": 34582, "ELEMENT_SET_NO": 999, "REV_AT_EPOCH": 88048, "BSTAR": 0.00054405776, "MEAN_MOTION_DOT": 1.834e-05, "MEAN_MOTION_DDOT": 0}, "tle": {"line1": "1 34582U 93036VU  25353.73372055  .00001834  00000+0  54406-3 0  9990", "line2": "2 34582  74.0201 259.3701 0048246   7.9691 352.2220 14.43359214880481"}}, "geometry": {"type": "Point", "coordinates": [11.867599155771943, 72.6558110699639]}}, {"type": "Feature", "properties": {"norad_id": 34588, "name": "COSMOS 2251 DEB", "group": "cosmos-2251-debris", "lat": 59.94583014835204, "lon": 44.72681683834096, "alt_km": 759.1062663302109, "timestamp": "2025-12-20T05:41:50.426012+00:00", "meta": {"OBJECT_NAME": "COSMOS 2251 DEB", "OBJECT_ID": "1993-036WA", "EPOCH": "2025-12-19T04:54:50.443200", "MEAN_MOTION": 14.42040162, "ECCENTRICITY": 0.0019267, "INCLINATION": 74.043, "RA_OF_ASC_NODE": 256.2759, "ARG_OF_PERICENTER": 308.2893, "MEAN_ANOMALY": 208.8114, "EPHEMERIS_TYPE": 0, "CLASSIFICATION_TYPE": "U", "NORAD_CAT_ID": 34588, "ELEMENT_SET_NO": 999, "REV_AT_EPOCH": 88043, "BSTAR": 0.00032757037, "MEAN_MOTION_DOT": 1.051e-05, "MEAN_MOTION_DDOT": 0}, "tle": {"line1": "1 34588U 93036WA  25353.20475050  .00001051  00000+0  32757-3 0  9993", "line2": "2 34588  74.0430 256.2759 0019267 308.2893 208.8114 14.42040162880433"}}, "geometry": {"type": "Point", "coordinates": [44.72681683834096, 59.94583014835204]}}, {"type": "Feature", "properties": {"norad_id": 34589, "name": "COSMOS 2251 DEB", "group": "cosmos-2251-debris", "lat": -62.10461073896267, "lon": -103.74023437929684, "alt_km": 971.1594552747665, "timestamp": "2025-12-20T05:41:50.426022+00:00", "meta": {"OBJECT_NAME": "COSMOS 2251 DEB", "OBJECT_ID": "1993-036WB", "EPOCH": "2025-12-19T13:38:04.639200", "MEAN_MOTION": 13.86059262, "ECCENTRICITY": 0.0252128, "INCLINATION": 73.925, "RA_OF_ASC_NODE": 44.3965, "ARG_OF_PERICENTER": 346.3595, "MEAN_ANOMALY": 165.0467, "EPHEMERIS_TYPE": 0, "CLASSIFICATION_TYPE": "U", "NORAD_CAT_ID": 34589, "ELEMENT_SET_NO": 999, "REV_AT_EPOCH": 84806, "BSTAR": 0.00027367, "MEAN_MOTION_DOT": 3.8e-06, "MEAN_MOTION_DDOT": 0}, "tle": {"line1": "1 34589U 93036WB  25353.56810925  .00000380  00000+0  27367-3 0  9992", "line2": "2 34589  73.9250  44.3965 0252128 346.3595 165.0467 13.86059262848060"}}, "geometry": {"type": "Point", "coordinates": [-103.74023437929684, -62.10461073896267]}}, {"type": "Feature", "properties": {"norad_id": 34590, "name": "COSMOS 2251 DEB", "group": "cosmos-2251-debris", "lat": -65.9059636679227, "lon": -91.40656726855917, "alt_km": 757.3425554052865, "timestamp": "2025-12-20T05:41:50.426033+00:00", "meta": {"OBJECT_NAME": "COSMOS 2251 DEB", "OBJECT_ID": "1993-036WC", "EPOCH": "2025-12-19T05:33:46.179072", "MEAN_MOTION": 14.5483298, "ECCENTRICITY": 0.0067997, "INCLINATION": 74.0441, "RA_OF_ASC_NODE": 310.2692, "ARG_OF_PERICENTER": 77.9732, "MEAN_ANOMALY": 346.1753, "EPHEMERIS_TYPE": 0, "CLASSIFICATION_TYPE": "U", "NORAD_CAT_ID": 34590, "ELEMENT_SET_NO": 999, "REV_AT_EPOCH": 89215, "BSTAR": 0.00010011, "MEAN_MOTION_DOT": 4.13e-06, "MEAN_MOTION_DDOT": 0}, "tle": {"line1": "1 34590U 93036WC  25353.23178448  .00000413  00000+0  10011-3 0  9990", "line2": "2 34590  74.0441 310.2692 0067997  77.9732 346.1753 14.54832980892157"}}, "geometry": {"type": "Point", "coordinates": [-91.40656726855917, -65.9059636679227]}}, {"type": "Feature", "properties": {"norad_id": 34609, "name": "COSMOS 2251 DEB", "group": "cosmos-2251-debris", "lat": -61.628109271682334, "lon": -54.25488461416156, "alt_km": 780.4398140754929, "timestamp": "2025-12-20T05:41:50.426043+00:00", "meta": {"OBJECT_NAME": "COSMOS 2251 DEB", "OBJECT_ID": "1993-036WE", "EPOCH": "2025-12-19T06:43:05.056032", "MEAN_MOTION": 14.21814448, "ECCENTRICITY": 0.0145469, "INCLINATION": 73.7337, "RA_OF_ASC_NODE": 94.7686, "ARG_OF_PERICENTER": 313.2418, "MEAN_ANOMALY": 75.7069, "EPHEMERIS_TYPE": 0, "CLASSIFICATION_TYPE": "U", "NORAD_CAT_ID": 34609, "ELEMENT_SET_NO": 999, "REV_AT_EPOCH": 86725, "BSTAR": 0.00051747, "MEAN_MOTION_DOT": 1.24e-05, "MEAN_MOTION_DDOT": 0}, "tle": {"line1": "1 34609U 93036WE  25353.27991963  .00001240  00000+0  51747-3 0  9990", "line2": "2 34609  73.7337  94.7686 0145469 313.2418  75.7069 14.21814448867254"}}, "geometry": {"type": "Point", "coordinates": [-54.25488461416156, -61.628109271682334]}}]}